start=new Date('2022-01-15T00:00:00.000Z').valueOf();
sats=[{"COUNTRY_CODE":"US","BSTAR":"0.00011005000000","REF_FRAME":"TEME","MEAN_MOTION":"15.06396310","INCLINATION":"53.0536","RCS_SIZE":"LARGE","SITE":"AFETR","PERIAPSIS":"545.604","TLE_LINE2":"2 46168  53.0536 226.9156 0002341  71.7014 288.4229 15.06396310 78442","LAUNCH_DATE":"2020-08-18","MEAN_ELEMENT_THEORY":"SGP4","DECAY_DATE":null,"ARG_OF_PERICENTER":"71.7014","MEAN_MOTION_DOT":"0.00001358","CENTER_NAME":"EARTH","OBJECT_ID":"2020-057BD","MEAN_MOTION_DDOT":"0.0000000000000","SEMIMAJOR_AXIS":"6925.360","EPOCH":"2022-01-14T20:49:32.865600","CLASSIFICATION_TYPE":"U","ECCENTRICITY":"0.00023410","ELEMENT_SET_NO":"999","EPHEMERIS_TYPE":"0","RA_OF_ASC_NODE":"226.9156","NORAD_CAT_ID":"46168","MEAN_ANOMALY":"288.4229","FILE":"3273247","REV_AT_EPOCH":"7844","OBJECT_TYPE":"PAYLOAD","APOAPSIS":"548.846","OBJECT_NAME":"STARLINK-1627","PERIOD":"95.592","GP_ID":"193877476","TLE_LINE1":"1 46168U 20057BD  22014.86774150  .00001358  00000-0  11005-3 0  9993","TIME_SYSTEM":"UTC"},{"ELEMENT_SET_NO":"999","ECCENTRICITY":"0.00019020","REV_AT_EPOCH":"7772","FILE":"3273247","MEAN_ANOMALY":"286.6946","RA_OF_ASC_NODE":"276.7725","NORAD_CAT_ID":"46169","EPHEMERIS_TYPE":"0","OBJECT_NAME":"STARLINK-1628","OBJECT_TYPE":"PAYLOAD","APOAPSIS":"551.039","TIME_SYSTEM":"UTC","GP_ID":"193876224","TLE_LINE1":"1 46169U 20057BE  22014.89859797  .00000933  00000-0  83213-4 0  9997","PERIOD":"95.644","MEAN_MOTION":"15.05582164","REF_FRAME":"TEME","BSTAR":"0.00008321300000","COUNTRY_CODE":"US","TLE_LINE2":"2 46169  53.0006 276.7725 0001902  73.4251 286.6946 15.05582164 77723","PERIAPSIS":"548.404","SITE":"AFETR","RCS_SIZE":"LARGE","INCLINATION":"53.0006","OBJECT_ID":"2020-057BE","MEAN_MOTION_DOT":"0.00000933","ARG_OF_PERICENTER":"73.4251","CENTER_NAME":"EARTH","MEAN_ELEMENT_THEORY":"SGP4","DECAY_DATE":null,"LAUNCH_DATE":"2020-08-18","EPOCH":"2022-01-14T21:33:58.864608","CLASSIFICATION_TYPE":"U","SEMIMAJOR_AXIS":"6927.856","MEAN_MOTION_DDOT":"0.0000000000000"},{"SITE":"AFETR","RCS_SIZE":"LARGE","INCLINATION":"53.0541","TLE_LINE2":"2 46171  53.0541 256.5942 0002339  62.0992 298.0234 15.06401213 79295","PERIAPSIS":"545.590","COUNTRY_CODE":"US","BSTAR":"0.00014976000000","MEAN_MOTION":"15.06401213","REF_FRAME":"TEME","CLASSIFICATION_TYPE":"U","EPOCH":"2022-01-14T22:33:04.719744","SEMIMAJOR_AXIS":"6925.345","MEAN_MOTION_DDOT":"0.0000000000000","DECAY_DATE":null,"MEAN_ELEMENT_THEORY":"SGP4","LAUNCH_DATE":"2020-08-18","OBJECT_ID":"2020-057BG","CENTER_NAME":"EARTH","MEAN_MOTION_DOT":"0.00001950","ARG_OF_PERICENTER":"62.0992","EPHEMERIS_TYPE":"0","FILE":"3273247","MEAN_ANOMALY":"298.0234","REV_AT_EPOCH":"7929","RA_OF_ASC_NODE":"256.5942","NORAD_CAT_ID":"46171","ECCENTRICITY":"0.00023390","ELEMENT_SET_NO":"999","PERIOD":"95.592","TIME_SYSTEM":"UTC","GP_ID":"193876474","TLE_LINE1":"1 46171U 20057BG  22014.93963796  .00001950  00000-0  14976-3 0  9999","APOAPSIS":"548.830","OBJECT_TYPE":"PAYLOAD","OBJECT_NAME":"STARLINK-1633"},{"PERIAPSIS":"545.442","TLE_LINE2":"2 46172  53.0538 256.8389 0002503  61.3226 298.8015 15.06412463 79288","INCLINATION":"53.0538","RCS_SIZE":"LARGE","SITE":"AFETR","REF_FRAME":"TEME","MEAN_MOTION":"15.06412463","BSTAR":"0.00037110000000","COUNTRY_CODE":"US","SEMIMAJOR_AXIS":"6925.310","MEAN_MOTION_DDOT":"0.0000000000000","CLASSIFICATION_TYPE":"U","EPOCH":"2022-01-14T21:18:45.265824","CENTER_NAME":"EARTH","MEAN_MOTION_DOT":"0.00005252","ARG_OF_PERICENTER":"61.3226","OBJECT_ID":"2020-057BH","LAUNCH_DATE":"2020-08-18","DECAY_DATE":null,"MEAN_ELEMENT_THEORY":"SGP4","NORAD_CAT_ID":"46172","RA_OF_ASC_NODE":"256.8389","FILE":"3273247","MEAN_ANOMALY":"298.8015","REV_AT_EPOCH":"7928","EPHEMERIS_TYPE":"0","ELEMENT_SET_NO":"999","ECCENTRICITY":"0.00025030","GP_ID":"193877725","TLE_LINE1":"1 46172U 20057BH  22014.88802391  .00005252  00000-0  37110-3 0  9991","TIME_SYSTEM":"UTC","PERIOD":"95.591","OBJECT_NAME":"STARLINK-1635","APOAPSIS":"548.909","OBJECT_TYPE":"PAYLOAD"},{"TIME_SYSTEM":"UTC","GP_ID":"193877976","TLE_LINE1":"1 46173U 20057BJ  22014.93410104  .00001087  00000-0  91890-4 0  9993","PERIOD":"95.592","OBJECT_NAME":"STARLINK-1640","OBJECT_TYPE":"PAYLOAD","APOAPSIS":"548.689","FILE":"3273247","MEAN_ANOMALY":"291.2784","REV_AT_EPOCH":"7775","RA_OF_ASC_NODE":"276.6267","NORAD_CAT_ID":"46173","EPHEMERIS_TYPE":"0","ELEMENT_SET_NO":"999","ECCENTRICITY":"0.00021280","CLASSIFICATION_TYPE":"U","EPOCH":"2022-01-14T22:25:06.329856","SEMIMAJOR_AXIS":"6925.350","MEAN_MOTION_DDOT":"0.0000000000000","OBJECT_ID":"2020-057BJ","CENTER_NAME":"EARTH","MEAN_MOTION_DOT":"0.00001087","ARG_OF_PERICENTER":"68.8433","DECAY_DATE":null,"MEAN_ELEMENT_THEORY":"SGP4","LAUNCH_DATE":"2020-08-18","TLE_LINE2":"2 46173  53.0550 276.6267 0002128  68.8433 291.2784 15.06399513 77753","PERIAPSIS":"545.741","SITE":"AFETR","INCLINATION":"53.0550","RCS_SIZE":"LARGE","MEAN_MOTION":"15.06399513","REF_FRAME":"TEME","BSTAR":"0.00009189000000","COUNTRY_CODE":"US"},{"APOAPSIS":"548.580","OBJECT_TYPE":"PAYLOAD","OBJECT_NAME":"STARLINK-1641","PERIOD":"95.593","TIME_SYSTEM":"UTC","GP_ID":"193876724","TLE_LINE1":"1 46174U 20057BK  22014.94146820  .00000674  00000-0  64163-4 0  9990","ECCENTRICITY":"0.00019390","ELEMENT_SET_NO":"999","EPHEMERIS_TYPE":"0","MEAN_ANOMALY":"291.5215","FILE":"3273247","REV_AT_EPOCH":"7775","NORAD_CAT_ID":"46174","RA_OF_ASC_NODE":"276.5882","MEAN_ELEMENT_THEORY":"SGP4","DECAY_DATE":null,"LAUNCH_DATE":"2020-08-18","OBJECT_ID":"2020-057BK","ARG_OF_PERICENTER":"68.5980","MEAN_MOTION_DOT":"0.00000674","CENTER_NAME":"EARTH","EPOCH":"2022-01-14T22:35:42.852480","CLASSIFICATION_TYPE":"U","SEMIMAJOR_AXIS":"6925.373","MEAN_MOTION_DDOT":"0.0000000000000","COUNTRY_CODE":"US","BSTAR":"0.00006416300000","MEAN_MOTION":"15.06392168","REF_FRAME":"TEME","SITE":"AFETR","INCLINATION":"53.0552","RCS_SIZE":"LARGE","TLE_LINE2":"2 46174  53.0552 276.5882 0001939  68.5980 291.5215 15.06392168 77752","PERIAPSIS":"545.895"},{"MEAN_MOTION":"15.06406357","REF_FRAME":"TEME","BSTAR":"0.00020523000000","COUNTRY_CODE":"US","TLE_LINE2":"2 46325  53.0552 293.6264 0002165  63.4921 296.6290 15.06406357 77176","PERIAPSIS":"545.695","SITE":"AFETR","INCLINATION":"53.0552","RCS_SIZE":"LARGE","OBJECT_ID":"2020-062A","CENTER_NAME":"EARTH","ARG_OF_PERICENTER":"63.4921","MEAN_MOTION_DOT":"0.00002777","DECAY_DATE":null,"MEAN_ELEMENT_THEORY":"SGP4","LAUNCH_DATE":"2020-09-03","CLASSIFICATION_TYPE":"U","EPOCH":"2022-01-14T11:43:31.439712","SEMIMAJOR_AXIS":"6925.329","MEAN_MOTION_DDOT":"0.0000000000000","ELEMENT_SET_NO":"999","ECCENTRICITY":"0.00021650","FILE":"3272874","REV_AT_EPOCH":"7717","MEAN_ANOMALY":"296.6290","RA_OF_ASC_NODE":"293.6264","NORAD_CAT_ID":"46325","EPHEMERIS_TYPE":"0","OBJECT_NAME":"STARLINK-1734","APOAPSIS":"548.693","OBJECT_TYPE":"PAYLOAD","TIME_SYSTEM":"UTC","TLE_LINE1":"1 46325U 20062A   22014.48855833  .00002777  00000-0  20523-3 0  9991","GP_ID":"193847625","PERIOD":"95.592"},{"FILE":"3272874","REV_AT_EPOCH":"7595","MEAN_ANOMALY":"287.8985","RA_OF_ASC_NODE":"338.1311","NORAD_CAT_ID":"46326","EPHEMERIS_TYPE":"0","ELEMENT_SET_NO":"999","ECCENTRICITY":"0.00014790","TIME_SYSTEM":"UTC","TLE_LINE1":"1 46326U 20062B   22014.59589325  .00001234  00000-0  10174-3 0  9992","GP_ID":"193846117","PERIOD":"95.592","OBJECT_NAME":"STARLINK-1654","APOAPSIS":"548.245","OBJECT_TYPE":"PAYLOAD","TLE_LINE2":"2 46326  53.0557 338.1311 0001479  72.2165 287.8985 15.06397682 75952","PERIAPSIS":"546.196","SITE":"AFETR","RCS_SIZE":"LARGE","INCLINATION":"53.0557","MEAN_MOTION":"15.06397682","REF_FRAME":"TEME","COUNTRY_CODE":"US","BSTAR":"0.00010174000000","EPOCH":"2022-01-14T14:18:05.176800","CLASSIFICATION_TYPE":"U","SEMIMAJOR_AXIS":"6925.356","MEAN_MOTION_DDOT":"0.0000000000000","OBJECT_ID":"2020-062B","MEAN_MOTION_DOT":"0.00001234","ARG_OF_PERICENTER":"72.2165","CENTER_NAME":"EARTH","MEAN_ELEMENT_THEORY":"SGP4","DECAY_DATE":null,"LAUNCH_DATE":"2020-09-03"},{"PERIOD":"95.592","GP_ID":"193846125","TLE_LINE1":"1 46327U 20062C   22014.30933442  .00001546  00000-0  12271-3 0  9991","TIME_SYSTEM":"UTC","OBJECT_TYPE":"PAYLOAD","APOAPSIS":"548.480","OBJECT_NAME":"STARLINK-1673","EPHEMERIS_TYPE":"0","RA_OF_ASC_NODE":"339.4360","NORAD_CAT_ID":"46327","FILE":"3272874","MEAN_ANOMALY":"296.1641","REV_AT_EPOCH":"7590","ECCENTRICITY":"0.00018150","ELEMENT_SET_NO":"999","SEMIMAJOR_AXIS":"6925.358","MEAN_MOTION_DDOT":"0.0000000000000","CLASSIFICATION_TYPE":"U","EPOCH":"2022-01-14T07:25:26.493888","LAUNCH_DATE":"2020-09-03","DECAY_DATE":null,"MEAN_ELEMENT_THEORY":"SGP4","CENTER_NAME":"EARTH","MEAN_MOTION_DOT":"0.00001546","ARG_OF_PERICENTER":"63.9534","OBJECT_ID":"2020-062C","INCLINATION":"53.0555","RCS_SIZE":"LARGE","SITE":"AFETR","PERIAPSIS":"545.966","TLE_LINE2":"2 46327  53.0555 339.4360 0001815  63.9534 296.1641 15.06397061 75908","COUNTRY_CODE":"US","BSTAR":"0.00012271000000","REF_FRAME":"TEME","MEAN_MOTION":"15.06397061"},{"ELEMENT_SET_NO":"999","ECCENTRICITY":"0.00017680","FILE":"3272874","REV_AT_EPOCH":"7622","MEAN_ANOMALY":"294.4129","NORAD_CAT_ID":"46328","RA_OF_ASC_NODE":"318.3276","EPHEMERIS_TYPE":"0","OBJECT_NAME":"STARLINK-1686","OBJECT_TYPE":"PAYLOAD","APOAPSIS":"548.418","TIME_SYSTEM":"UTC","TLE_LINE1":"1 46328U 20062D   22014.55443822  .00001268  00000-0  10402-3 0  9992","GP_ID":"193846371","PERIOD":"95.592","MEAN_MOTION":"15.06406376","REF_FRAME":"TEME","COUNTRY_CODE":"US","BSTAR":"0.00010402000000","TLE_LINE2":"2 46328  53.0565 318.3276 0001768  65.7044 294.4129 15.06406376 76223","PERIAPSIS":"545.970","SITE":"AFETR","RCS_SIZE":"LARGE","INCLINATION":"53.0565","OBJECT_ID":"2020-062D","ARG_OF_PERICENTER":"65.7044","MEAN_MOTION_DOT":"0.00001268","CENTER_NAME":"EARTH","MEAN_ELEMENT_THEORY":"SGP4","DECAY_DATE":null,"LAUNCH_DATE":"2020-09-03","EPOCH":"2022-01-14T13:18:23.462208","CLASSIFICATION_TYPE":"U","MEAN_MOTION_DDOT":"0.0000000000000","SEMIMAJOR_AXIS":"6925.329"}];
